CCSDS_OMM_VERS = 2.0
CREATION_DATE  = 
ORIGINATOR     = 

OBJECT_NAME    = ISS (ZARYA)
OBJECT_ID      = 1998-067A
CENTER_NAME    = EARTH
REF_FRAME      = TEME
TIME_SYSTEM    = UTC
MEAN_ELEMENT_THEORY = SGP/SGP4

EPOCH          = 2025-11-04T03:56:45.386016
MEAN_MOTION    = 15.49739341
ECCENTRICITY   = .00050356
INCLINATION    = 51.6336
RA_OF_ASC_NODE = 333.4485
ARG_OF_PERICENTER = 15.3367
MEAN_ANOMALY   = 344.7773

EPHEMERIS_TYPE = 0
CLASSIFICATION_TYPE = U
NORAD_CAT_ID   = 25544
ELEMENT_SET_NO = 999
REV_AT_EPOCH   = 53687
BSTAR          = .19921566E-3
MEAN_MOTION_DOT = .10829E-3
MEAN_MOTION_DDOT = 0

CCSDS_OMM_VERS = 2.0
CREATION_DATE  = 
ORIGINATOR     = 

OBJECT_NAME    = CSS (TIANHE)
OBJECT_ID      = 2021-035A
CENTER_NAME    = EARTH
REF_FRAME      = TEME
TIME_SYSTEM    = UTC
MEAN_ELEMENT_THEORY = SGP/SGP4

EPOCH          = 2025-11-04T03:50:32.751456
MEAN_MOTION    = 15.60341380
ECCENTRICITY   = .0006377
INCLINATION    = 41.4668
RA_OF_ASC_NODE = 251.0039
ARG_OF_PERICENTER = 319.7576
MEAN_ANOMALY   = 40.2790

EPHEMERIS_TYPE = 0
CLASSIFICATION_TYPE = U
NORAD_CAT_ID   = 48274
ELEMENT_SET_NO = 999
REV_AT_EPOCH   = 25800
BSTAR          = .38952949E-3
MEAN_MOTION_DOT = .32649E-3
MEAN_MOTION_DDOT = 0

CCSDS_OMM_VERS = 2.0
CREATION_DATE  = 
ORIGINATOR     = 

OBJECT_NAME    = ISS (NAUKA)
OBJECT_ID      = 2021-066A
CENTER_NAME    = EARTH
REF_FRAME      = TEME
TIME_SYSTEM    = UTC
MEAN_ELEMENT_THEORY = SGP/SGP4

EPOCH          = 2025-11-04T03:56:45.386016
MEAN_MOTION    = 15.49739341
ECCENTRICITY   = .00050356
INCLINATION    = 51.6336
RA_OF_ASC_NODE = 333.4485
ARG_OF_PERICENTER = 15.3367
MEAN_ANOMALY   = 344.7773

EPHEMERIS_TYPE = 0
CLASSIFICATION_TYPE = U
NORAD_CAT_ID   = 49044
ELEMENT_SET_NO = 999
REV_AT_EPOCH   = 23044
BSTAR          = .19921566E-3
MEAN_MOTION_DOT = .10829E-3
MEAN_MOTION_DDOT = 0

CCSDS_OMM_VERS = 2.0
CREATION_DATE  = 
ORIGINATOR     = 

OBJECT_NAME    = FREGAT DEB
OBJECT_ID      = 2011-037PF
CENTER_NAME    = EARTH
REF_FRAME      = TEME
TIME_SYSTEM    = UTC
MEAN_ELEMENT_THEORY = SGP/SGP4

EPOCH          = 2025-11-04T04:29:13.371648
MEAN_MOTION    = 12.33798961
ECCENTRICITY   = .08870007
INCLINATION    = 51.6272
RA_OF_ASC_NODE = 313.4362
ARG_OF_PERICENTER = 140.7270
MEAN_ANOMALY   = 226.1466

EPHEMERIS_TYPE = 0
CLASSIFICATION_TYPE = U
NORAD_CAT_ID   = 49271
ELEMENT_SET_NO = 999
REV_AT_EPOCH   = 19717
BSTAR          = .76599821E-2
MEAN_MOTION_DOT = .3553E-4
MEAN_MOTION_DDOT = 0

CCSDS_OMM_VERS = 2.0
CREATION_DATE  = 
ORIGINATOR     = 

OBJECT_NAME    = CSS (WENTIAN)
OBJECT_ID      = 2022-085A
CENTER_NAME    = EARTH
REF_FRAME      = TEME
TIME_SYSTEM    = UTC
MEAN_ELEMENT_THEORY = SGP/SGP4

EPOCH          = 2025-11-04T03:50:32.751456
MEAN_MOTION    = 15.60341380
ECCENTRICITY   = .0006377
INCLINATION    = 41.4668
RA_OF_ASC_NODE = 251.0039
ARG_OF_PERICENTER = 319.7576
MEAN_ANOMALY   = 40.2790

EPHEMERIS_TYPE = 0
CLASSIFICATION_TYPE = U
NORAD_CAT_ID   = 53239
ELEMENT_SET_NO = 999
REV_AT_EPOCH   = 17384
BSTAR          = .38952949E-3
MEAN_MOTION_DOT = .32649E-3
MEAN_MOTION_DDOT = 0

CCSDS_OMM_VERS = 2.0
CREATION_DATE  = 
ORIGINATOR     = 

OBJECT_NAME    = CSS (MENGTIAN)
OBJECT_ID      = 2022-143A
CENTER_NAME    = EARTH
REF_FRAME      = TEME
TIME_SYSTEM    = UTC
MEAN_ELEMENT_THEORY = SGP/SGP4

EPOCH          = 2025-11-04T03:50:32.751456
MEAN_MOTION    = 15.60341380
ECCENTRICITY   = .0006377
INCLINATION    = 41.4668
RA_OF_ASC_NODE = 251.0039
ARG_OF_PERICENTER = 319.7576
MEAN_ANOMALY   = 40.2790

EPHEMERIS_TYPE = 0
CLASSIFICATION_TYPE = U
NORAD_CAT_ID   = 54216
ELEMENT_SET_NO = 999
REV_AT_EPOCH   = 15864
BSTAR          = .38952949E-3
MEAN_MOTION_DOT = .32649E-3
MEAN_MOTION_DDOT = 0

CCSDS_OMM_VERS = 2.0
CREATION_DATE  = 
ORIGINATOR     = 

OBJECT_NAME    = SOYUZ-MS 27
OBJECT_ID      = 2025-072A
CENTER_NAME    = EARTH
REF_FRAME      = TEME
TIME_SYSTEM    = UTC
MEAN_ELEMENT_THEORY = SGP/SGP4

EPOCH          = 2025-11-04T03:56:45.386016
MEAN_MOTION    = 15.49739341
ECCENTRICITY   = .00050356
INCLINATION    = 51.6336
RA_OF_ASC_NODE = 333.4485
ARG_OF_PERICENTER = 15.3367
MEAN_ANOMALY   = 344.7773

EPHEMERIS_TYPE = 0
CLASSIFICATION_TYPE = U
NORAD_CAT_ID   = 63520
ELEMENT_SET_NO = 999
REV_AT_EPOCH   = 2020
BSTAR          = .19921566E-3
MEAN_MOTION_DOT = .10829E-3
MEAN_MOTION_DDOT = 0

CCSDS_OMM_VERS = 2.0
CREATION_DATE  = 
ORIGINATOR     = 

OBJECT_NAME    = SHENZHOU-20 (SZ-20)
OBJECT_ID      = 2025-082A
CENTER_NAME    = EARTH
REF_FRAME      = TEME
TIME_SYSTEM    = UTC
MEAN_ELEMENT_THEORY = SGP/SGP4

EPOCH          = 2025-11-04T03:50:32.751456
MEAN_MOTION    = 15.60341380
ECCENTRICITY   = .0006377
INCLINATION    = 41.4668
RA_OF_ASC_NODE = 251.0039
ARG_OF_PERICENTER = 319.7576
MEAN_ANOMALY   = 40.2790

EPHEMERIS_TYPE = 0
CLASSIFICATION_TYPE = U
NORAD_CAT_ID   = 63632
ELEMENT_SET_NO = 999
REV_AT_EPOCH   = 25530
BSTAR          = .38952949E-3
MEAN_MOTION_DOT = .32649E-3
MEAN_MOTION_DDOT = 0

CCSDS_OMM_VERS = 2.0
CREATION_DATE  = 
ORIGINATOR     = 

OBJECT_NAME    = PROGRESS-MS 31
OBJECT_ID      = 2025-146A
CENTER_NAME    = EARTH
REF_FRAME      = TEME
TIME_SYSTEM    = UTC
MEAN_ELEMENT_THEORY = SGP/SGP4

EPOCH          = 2025-11-04T03:56:45.386016
MEAN_MOTION    = 15.49739341
ECCENTRICITY   = .00050356
INCLINATION    = 51.6336
RA_OF_ASC_NODE = 333.4485
ARG_OF_PERICENTER = 15.3367
MEAN_ANOMALY   = 344.7773

EPHEMERIS_TYPE = 0
CLASSIFICATION_TYPE = U
NORAD_CAT_ID   = 64751
ELEMENT_SET_NO = 999
REV_AT_EPOCH   = 675
BSTAR          = .19921566E-3
MEAN_MOTION_DOT = .10829E-3
MEAN_MOTION_DDOT = 0

CCSDS_OMM_VERS = 2.0
CREATION_DATE  = 
ORIGINATOR     = 

OBJECT_NAME    = TIANZHOU-9
OBJECT_ID      = 2025-149A
CENTER_NAME    = EARTH
REF_FRAME      = TEME
TIME_SYSTEM    = UTC
MEAN_ELEMENT_THEORY = SGP/SGP4

EPOCH          = 2025-11-04T03:50:32.751456
MEAN_MOTION    = 15.60341380
ECCENTRICITY   = .0006377
INCLINATION    = 41.4668
RA_OF_ASC_NODE = 251.0039
ARG_OF_PERICENTER = 319.7576
MEAN_ANOMALY   = 40.2790

EPHEMERIS_TYPE = 0
CLASSIFICATION_TYPE = U
NORAD_CAT_ID   = 64786
ELEMENT_SET_NO = 999
REV_AT_EPOCH   = 25530
BSTAR          = .38952949E-3
MEAN_MOTION_DOT = .32649E-3
MEAN_MOTION_DDOT = 0

CCSDS_OMM_VERS = 2.0
CREATION_DATE  = 
ORIGINATOR     = 

OBJECT_NAME    = CREW DRAGON 11
OBJECT_ID      = 2025-166A
CENTER_NAME    = EARTH
REF_FRAME      = TEME
TIME_SYSTEM    = UTC
MEAN_ELEMENT_THEORY = SGP/SGP4

EPOCH          = 2025-11-04T03:56:45.386016
MEAN_MOTION    = 15.49739341
ECCENTRICITY   = .00050356
INCLINATION    = 51.6336
RA_OF_ASC_NODE = 333.4485
ARG_OF_PERICENTER = 15.3367
MEAN_ANOMALY   = 344.7773

EPHEMERIS_TYPE = 0
CLASSIFICATION_TYPE = U
NORAD_CAT_ID   = 65077
ELEMENT_SET_NO = 999
REV_AT_EPOCH   = 214
BSTAR          = .19921566E-3
MEAN_MOTION_DOT = .10829E-3
MEAN_MOTION_DDOT = 0

CCSDS_OMM_VERS = 2.0
CREATION_DATE  = 
ORIGINATOR     = 

OBJECT_NAME    = DRAGON CRS-33
OBJECT_ID      = 2025-186A
CENTER_NAME    = EARTH
REF_FRAME      = TEME
TIME_SYSTEM    = UTC
MEAN_ELEMENT_THEORY = SGP/SGP4

EPOCH          = 2025-11-04T03:56:45.386016
MEAN_MOTION    = 15.49739341
ECCENTRICITY   = .00050356
INCLINATION    = 51.6336
RA_OF_ASC_NODE = 333.4485
ARG_OF_PERICENTER = 15.3367
MEAN_ANOMALY   = 344.7773

EPHEMERIS_TYPE = 0
CLASSIFICATION_TYPE = U
NORAD_CAT_ID   = 65304
ELEMENT_SET_NO = 999
REV_AT_EPOCH   = 11
BSTAR          = .19921566E-3
MEAN_MOTION_DOT = .10829E-3
MEAN_MOTION_DDOT = 0

